METEOSAT-7              
1 24932U 97049B   15113.77791478  .00000034  00000-0  00000+0 0  9996
2 24932   9.5976  44.8414 0008304 223.6302 280.9512  1.00270847 64608
NOAA 15                 
1 25338U 98030A   15113.69338804  .00000338  00000-0  14259-3 0  9991
2 25338  98.7712 112.2981 0010212 332.6126  27.4993 14.25604404881393
METEOSAT-8 (MSG-1)      
1 27509U 02040B   15113.57299380  .00000000  00000-0  10000-3 0  9997
2 27509   3.4409  61.2723 0000533 208.2650 151.6471  1.00265945 46401
KALPANA-1 (METSAT 1)    
1 27525U 02043A   15112.58118449 -.00000102  00000-0  00000+0 0  9993
2 27525   4.9794  60.8947 0011484 217.7468 214.8461  1.00271841 46205
INSAT-3A                
1 27714U 03013A   15113.05727308 -.00000282  00000-0  00000+0 0  9993
2 27714   0.1020  90.2756 0005079 333.9567 260.6329  1.00272116 44109
HIMAWARI-6 (MTSAT-1R)   
1 28622U 05006A   15113.64631735 -.00000304  00000-0  00000+0 0  9994
2 28622   0.0886  83.5926 0003904 304.2866 196.1163  1.00272336 37171
NOAA 18                 
1 28654U 05018A   15113.71991678  .00000433  00000-0  23537-3 0  9991
2 28654  99.1815 105.0432 0015033 111.1947 249.1308 14.12183987511504
METEOSAT-9 (MSG-2)      
1 28912U 05049B   15112.77415310  .00000038  00000-0  00000+0 0  9998
2 28912   0.7240  53.5227 0001064 298.4312 146.6286  1.00265846 34250
MTSAT-2                 
1 28937U 06004A   15112.75030941  .00000000  00000-0  10000-3 0  9992
2 28937   0.0230 283.5242 0003463 104.6429 237.4196  1.00270562 33555
FORMOSAT-3 FM6          
1 29047U 06011A   15112.84508185  .00000652  00000-0  27403-3 0  9991
2 29047  71.9813 351.3871 0049485  67.5882 293.0486 14.28313278472483
FORMOSAT-3 FM1          
1 29048U 06011B   15113.86696086  .00000600  00000-0  25448-3 0  9993
2 29048  71.9679 262.3027 0043800  18.5459  93.9903 14.28284564475118
FORMOSAT-3 FM5          
1 29049U 06011C   15113.16352255  .00000890  00000-0  37081-3 0  9991
2 29049  72.0207  64.7476 0033254  64.2501  30.6401 14.28292691470787
FORMOSAT-3 FM3          
1 29050U 06011D   15113.13592255  .00002459  00000-0  53902-3 0  9999
2 29050  72.0190  41.8222 0049876 145.9928 214.4438 14.57744686481986
FORMOSAT-3 FM4          
1 29051U 06011E   15113.80529026  .00000463  00000-0  19705-3 0  9996
2 29051  72.0067 328.8681 0069870 297.3102  62.0932 14.28298319473464
FORMOSAT-3 FM2          
1 29052U 06011F   15113.26104780  .00000872  00000-0  36184-3 0  9997
2 29052  72.0366  38.6390 0039564  27.5684 126.9343 14.28400008471706
GOES 13                 
1 29155U 06018A   15113.45733573 -.00000275  00000-0  00000+0 0  9999
2 29155   0.2944 265.9018 0004483 160.7694 234.5060  1.00272913 32679
METOP-A                 
1 29499U 06044A   15113.76932394  .00000212  00000-0  11686-3 0  9991
2 29499  98.6806 174.0249 0000793  51.6728  56.0897 14.21510701441553
FENGYUN 2D              
1 29640U 06053A   15113.74332545 -.00000222  00000-0  10000-3 0  9990
2 29640   2.9792  68.4816 0001970 126.0316  10.9855  1.00277520 30725
FENGYUN 3A              
1 32958U 08026A   15113.76625906  .00000159  00000-0  95180-4 0  9997
2 32958  98.5090 166.4045 0010410  41.4114 318.7848 14.19547942357906
FENGYUN 2E              
1 33463U 08066A   15112.90881669 -.00000354  00000-0  00000+0 0  9998
2 33463   2.5018  58.6606 0002920 155.5565  67.8938  1.00278355 23246
NOAA 19                 
1 33591U 09005A   15113.81347891  .00000509  00000-0  27832-3 0  9996
2 33591  98.9846  63.5760 0013606 327.6124  32.4698 14.11919146319827
GOES 14                 
1 35491U 09033A   15113.39533281 -.00000116  00000-0  00000+0 0  9990
2 35491   0.1417 101.2784 0000920  36.2337 111.5157  1.00270796 21326
METEOR-M 1              
1 35865U 09049A   15113.74812442  .00000191  00000-0  10554-3 0  9991
2 35865  98.5062 156.0262 0001684 287.8081  72.2911 14.22015498290474
GOES 15                 
1 36411U 10008A   15113.37869163  .00000066  00000-0  00000+0 0  9999
2 36411   0.0685 126.3441 0002007 216.4082 229.3618  1.00266160 18843
COMS 1                  
1 36744U 10032A   15113.48812272 -.00000368  00000-0  10000-3 0  9997
2 36744   0.0492  58.2194 0000387 348.6663 108.2430  1.00270672 17814
FENGYUN 3B              
1 37214U 10059A   15113.78205586  .00000173  00000-0  10349-3 0  9995
2 37214  98.8899  67.6363 0000598 350.7918   9.3258 14.19583000231404
ELEKTRO-L 1 (GOMS 2)    
1 37344U 11001A   15113.84468215 -.00000119  00000-0  10000-3 0  9999
2 37344   0.8654  80.7132 0001905 215.7347 295.1464  1.00268346 15637
SUOMI NPP               
1 37849U 11061A   15113.12600115  .00000196  00000-0  11333-3 0  9997
2 37849  98.6947  53.4335 0000622 101.5316  14.4430 14.19580867180561
FENGYUN 2F              
1 38049U 12002A   15113.85655122 -.00000380  00000-0  10000-3 0  9990
2 38049   0.2079  32.3706 0002893 167.1079  72.3733  1.00283219 12057
METEOSAT-10 (MSG-3)     
1 38552U 12035B   15113.07985840 -.00000030  00000-0  00000+0 0  9999
2 38552   0.0745 271.1045 0000934 183.9583 144.0973  1.00272797 10378
METOP-B                 
1 38771U 12049A   15112.82518708  .00000232  00000-0  12617-3 0  9998
2 38771  98.7026 173.5470 0001389  54.1634  71.6998 14.21494588134555
FENGYUN 3C              
1 39260U 13052A   15113.74422235  .00000150  00000-0  91666-4 0  9999
2 39260  98.7339 186.6471 0001634  88.2723 271.8641 14.19552066 81948
METEOR-M 2              
1 40069U 14037A   15113.78545788  .00000031  00000-0  34964-4 0  9991
2 40069  98.7628 168.9077 0005078 329.6309  30.4562 14.20605205 41045
HIMAWARI 8              
1 40267U 14060A   15111.33796130 -.00000301  00000-0  00000+0 0  9995
2 40267   0.0433  40.5318 0003142 294.7295 136.1357  1.00269276  2001
FENGYUN 2G              
1 40367U 14090A   15113.80917832 -.00000328  00000-0  00000+0 0  9996
2 40367   2.0541 277.5389 0004836 258.3982  66.5919  1.00273423  1204
